STARLINK-2417           
1 48096U 21027E   26112.87623269  .00006488  00000+0  22050-3 0  9991
2 48096  53.1602 320.2449 0001372  94.4956 265.6203 15.31721701279279
STARLINK-2418           
1 48097U 21027F   26112.80293318  .00002043  00000+0  77535-4 0  9995
2 48097  53.1604 307.8900 0001236  83.7134 276.4008 15.31719085279436
STARLINK-2421           
1 48098U 21027G   26113.09250780 -.00006378  00000+0 -19397-3 0  9992
2 48098  53.1607 308.5562 0000705  70.4211 289.6866 15.31694481279453
STARLINK-2428           
1 48099U 21027H   26112.84423803  .00002630  00000+0  96477-4 0  9993
2 48099  53.1604 322.5787 0001398  95.5368 264.5793 15.31705098279230
STARLINK-2430           
1 48100U 21027J   26112.94770291  .00006239  00000+0  21252-3 0  9990
2 48100  53.1590 306.7830 0001285  87.5004 272.6144 15.31721243279468
STARLINK-2436           
1 48101U 21027K   26111.86187967  .00057700  00000+0  19169-2 0  9995
2 48101  53.1596 314.4068 0001358  84.4631 275.6525 15.30673880279274
STARLINK-2439           
1 48104U 21027N   26112.91523306  .00006505  00000+0  22257-3 0  9996
2 48104  53.1616 307.2369 0001318 153.7944 206.3125 15.31498471279467
STARLINK-2440           
1 48105U 21027P   26112.70025184  .00000864  00000+0  41283-4 0  9998
2 48105  53.1606 256.5790 0000985  93.0330 267.0784 15.30200711280144
STARLINK-2442           
1 48106U 21027Q   26112.94851536  .00004771  00000+0  17745-3 0  9999
2 48106  53.1573 306.7674 0001283  87.1153 272.9994 15.29378999279469
STARLINK-2443           
1 48107U 21027R   26112.92165265  .00006407  00000+0  22807-3 0  9998
2 48107  53.1601 307.1241 0001114  71.6558 288.4563 15.30224837279453
STARLINK-2448           
1 48111U 21027V   26112.93781745  .00043084  00000+0  12239-2 0  9990
2 48111  53.1598 308.4003 0002850 216.7939 143.2869 15.35781751279451
STARLINK-2449           
1 48112U 21027W   26112.84389801  .00003319  00000+0  11860-3 0  9995
2 48112  53.1607 322.5645 0001371  81.0414 279.0743 15.31716509279241
STARLINK-2450           
1 48113U 21027X   26112.85286973  .00004046  00000+0  14194-3 0  9994
2 48113  53.1617 320.0421 0001265  93.8208 266.2939 15.31728240279264
STARLINK-2452           
1 48115U 21027Z   26112.80353472  .00002718  00000+0  99274-4 0  9997
2 48115  53.1604 309.8898 0001251  83.7716 276.3428 15.31719255279409
STARLINK-2454           
1 48116U 21027AA  26112.98750722  .00000049  00000+0  13766-4 0  9993
2 48116  53.1586 319.5065 0001141  81.4333 278.6797 15.30197459279297
STARLINK-2455           
1 48117U 21027AB  26112.82150891  .00037055  00000+0  11963-2 0  9990
2 48117  53.1553 307.3701 0001406 286.5319  73.5528 15.31795869279441
STARLINK-2459           
1 48119U 21027AD  26112.82185222  .00001794  00000+0  69543-4 0  9998
2 48119  53.1607 307.3034 0001452  97.6369 262.4797 15.31716119279436
STARLINK-2460           
1 48120U 21027AE  26113.33335648  .01628483  00000+0  40163-1 0  9991
2 48120  53.1604 320.3470 0000835 151.6632 123.6402 15.37089525  5878
STARLINK-2462           
1 48121U 21027AF  26111.85741280  .00002098  00000+0  79340-4 0  9999
2 48121  53.1605 314.3219 0001935 159.8670 200.2408 15.31708580279265
STARLINK-2464           
1 48123U 21027AH  26113.00002315  .00053513  00000+0  17255-2 0  9992
2 48123  53.1588 306.6771 0001112  69.2396 168.0373 15.31669210  5872
STARLINK-2465           
1 48124U 21027AJ  26112.97599224  .00002049  00000+0  77734-4 0  9996
2 48124  53.1611 309.1355 0001182  95.8569 264.2567 15.31718435279433
STARLINK-2466           
1 48125U 21027AK  26112.81368974  .00003775  00000+0  13951-3 0  9993
2 48125  53.1612 320.3377 0001533  92.6029 267.5147 15.30206097279266
STARLINK-2467           
1 48126U 21027AL  26112.84484654 -.00000848  00000+0 -15569-4 0  9999
2 48126  53.1596 307.2433 0001329  94.5268 265.5886 15.31699207279453
STARLINK-2468           
1 48127U 21027AM  26112.97840782  .00005430  00000+0  18652-3 0  9997
2 48127  53.1593 319.5572 0001320  85.6442 274.4711 15.31716046279296
STARLINK-2469           
1 48128U 21027AN  26113.09681535  .00036656  00000+0  16255-2 0  9991
2 48128  53.1081 257.6419 0001724 307.2456  52.8383 15.21276928280156
STARLINK-2471           
1 48129U 21027AP  26112.98807562  .00006664  00000+0  22611-3 0  9999
2 48129  53.1593 319.6793 0001298  86.0392 274.0758 15.31731342279290
STARLINK-2472           
1 48130U 21027AQ  26112.99775569  .00005448  00000+0  18701-3 0  9997
2 48130  53.1590 322.2522 0001165  97.3613 262.7521 15.31729749279260
STARLINK-2473           
1 48131U 21027AR  26112.91848037  .00005189  00000+0  18716-3 0  9999
2 48131  53.1596 307.0678 0001362  88.1316 271.9841 15.30207301279459
STARLINK-2474           
1 48132U 21027AS  26113.00269190  .00001783  00000+0  69160-4 0  9994
2 48132  53.1609 321.8270 0001123 102.6632 257.4495 15.31718976279253
STARLINK-2475           
1 48133U 21027AT  26112.95542837  .00001974  00000+0  75334-4 0  9992
2 48133  53.1608 319.6579 0001259  83.9127 276.2018 15.31717461279292
