OBJECT_NAME,OBJECT_ID,EPOCH,MEAN_MOTION,ECCENTRICITY,INCLINATION,RA_OF_ASC_NODE,ARG_OF_PERICENTER,MEAN_ANOMALY,EPHEMERIS_TYPE,CLASSIFICATION_TYPE,NORAD_CAT_ID,ELEMENT_SET_NO,REV_AT_EPOCH,BSTAR,MEAN_MOTION_DOT,MEAN_MOTION_DDOT
STARLINK-2417,2021-027E,2026-04-22T21:01:46.504416,15.31721701,.0001372,53.1602,320.2449,94.4956,265.6203,0,U,48096,999,27927,.2205E-3,.6488E-4,0
STARLINK-2418,2021-027F,2026-04-22T19:16:13.426752,15.31719085,.00012364,53.1604,307.8900,83.7134,276.4008,0,U,48097,999,27943,.77535054E-4,.2043E-4,0
STARLINK-2421,2021-027G,2026-04-23T02:13:12.673920,15.31694481,.00007057,53.1607,308.5562,70.4211,289.6866,0,U,48098,999,27945,-.19396879E-3,-.6378E-4,0
STARLINK-2428,2021-027H,2026-04-22T20:15:42.165792,15.31705098,.00013986,53.1604,322.5787,95.5368,264.5793,0,U,48099,999,27923,.96476959E-4,.263E-4,0
STARLINK-2430,2021-027J,2026-04-22T22:44:41.531424,15.31721243,.0001285,53.1590,306.7830,87.5004,272.6144,0,U,48100,999,27946,.21252E-3,.6239E-4,0
STARLINK-2436,2021-027K,2026-04-21T20:41:06.403488,15.30673880,.00013583,53.1596,314.4068,84.4631,275.6525,0,U,48101,999,27927,.19169089E-2,.577E-3,0
STARLINK-2439,2021-027N,2026-04-22T21:57:56.136384,15.31498471,.0001318,53.1616,307.2369,153.7944,206.3125,0,U,48104,999,27946,.22257E-3,.6505E-4,0
STARLINK-2440,2021-027P,2026-04-22T16:48:21.758976,15.30200711,.00009859,53.1606,256.5790,93.0330,267.0784,0,U,48105,999,28014,.41282823E-4,.864E-5,0
STARLINK-2442,2021-027Q,2026-04-22T22:45:51.727104,15.29378999,.0001283,53.1573,306.7674,87.1153,272.9994,0,U,48106,999,27946,.17745E-3,.4771E-4,0
STARLINK-2443,2021-027R,2026-04-22T22:07:10.788960,15.30224837,.0001114,53.1601,307.1241,71.6558,288.4563,0,U,48107,999,27945,.22807E-3,.6407E-4,0
STARLINK-2448,2021-027V,2026-04-22T22:30:27.427680,15.35781751,.000285,53.1598,308.4003,216.7939,143.2869,0,U,48111,999,27945,.12239E-2,.43084E-3,0
STARLINK-2449,2021-027W,2026-04-22T20:15:12.788064,15.31716509,.00013715,53.1607,322.5645,81.0414,279.0743,0,U,48112,999,27924,.11859716E-3,.3319E-4,0
STARLINK-2450,2021-027X,2026-04-22T20:28:07.944672,15.31728240,.00012651,53.1617,320.0421,93.8208,266.2939,0,U,48113,999,27926,.14193966E-3,.4046E-4,0
STARLINK-2452,2021-027Z,2026-04-22T19:17:05.399808,15.31719255,.00012514,53.1604,309.8898,83.7716,276.3428,0,U,48115,999,27940,.99273619E-4,.2718E-4,0
STARLINK-2454,2021-027AA,2026-04-22T23:42:00.623808,15.30197459,.00011419,53.1586,319.5065,81.4333,278.6797,0,U,48116,999,27929,.13765501E-4,.49E-6,0
STARLINK-2455,2021-027AB,2026-04-22T19:42:58.369824,15.31795869,.00014063,53.1553,307.3701,286.5319,73.5528,0,U,48117,999,27944,.1196345E-2,.37055E-3,0
STARLINK-2459,2021-027AD,2026-04-22T19:43:28.031808,15.31716119,.00014522,53.1607,307.3034,97.6369,262.4797,0,U,48119,999,27943,.69542851E-4,.1794E-4,0
STARLINK-2460,2021-027AE,2026-04-23T08:00:01.999872,15.37089525,.00008357,53.1604,320.3470,151.6632,123.6402,0,U,48120,999,587,.40162676E-1,.1628483E-1,0
STARLINK-2462,2021-027AF,2026-04-21T20:34:40.465920,15.31708580,.00019352,53.1605,314.3219,159.8670,200.2408,0,U,48121,999,27926,.79340099E-4,.2098E-4,0
STARLINK-2464,2021-027AH,2026-04-23T00:00:02.000160,15.31669210,.0001112,53.1588,306.6771,69.2396,168.0373,0,U,48123,999,587,.17255068E-2,.53513E-3,0
STARLINK-2465,2021-027AJ,2026-04-22T23:25:25.729536,15.31718435,.00011828,53.1611,309.1355,95.8569,264.2567,0,U,48124,999,27943,.77734308E-4,.2049E-4,0
STARLINK-2466,2021-027AK,2026-04-22T19:31:42.793536,15.30206097,.00015339,53.1612,320.3377,92.6029,267.5147,0,U,48125,999,27926,.13950818E-3,.3775E-4,0
STARLINK-2467,2021-027AL,2026-04-22T20:16:34.741056,15.31699207,.0001329,53.1596,307.2433,94.5268,265.5886,0,U,48126,999,27945,-.15569E-4,-.848E-5,0
STARLINK-2468,2021-027AM,2026-04-22T23:28:54.435648,15.31716046,.00013207,53.1593,319.5572,85.6442,274.4711,0,U,48127,999,27929,.18652139E-3,.543E-4,0
STARLINK-2469,2021-027AN,2026-04-23T02:19:24.846240,15.21276928,.00017245,53.1081,257.6419,307.2456,52.8383,0,U,48128,999,28015,.16254715E-2,.36656E-3,0
STARLINK-2471,2021-027AP,2026-04-22T23:42:49.733568,15.31731342,.0001298,53.1593,319.6793,86.0392,274.0758,0,U,48129,999,27929,.22610932E-3,.6664E-4,0
STARLINK-2472,2021-027AQ,2026-04-22T23:56:46.091616,15.31729749,.00011655,53.1590,322.2522,97.3613,262.7521,0,U,48130,999,27926,.18701431E-3,.5448E-4,0
STARLINK-2473,2021-027AR,2026-04-22T22:02:36.703968,15.30207301,.0001362,53.1596,307.0678,88.1316,271.9841,0,U,48131,999,27945,.18716E-3,.5189E-4,0
STARLINK-2474,2021-027AS,2026-04-23T00:03:52.580160,15.31718976,.00011238,53.1609,321.8270,102.6632,257.4495,0,U,48132,999,27925,.69159888E-4,.1783E-4,0
STARLINK-2475,2021-027AT,2026-04-22T22:55:49.011168,15.31717461,.0001259,53.1608,319.6579,83.9127,276.2018,0,U,48133,999,27929,.75334E-4,.1974E-4,0
